[{"OBJECT_NAME":"STARLINK-31392","OBJECT_ID":"2024-073V","EPOCH":"2026-03-09T10:02:54.342528","MEAN_MOTION":15.27568337,"ECCENTRICITY":0.00020571,"INCLINATION":43.0053,"RA_OF_ASC_NODE":319.5899,"ARG_OF_PERICENTER":264.0165,"MEAN_ANOMALY":96.0453,"EPHEMERIS_TYPE":0,"CLASSIFICATION_TYPE":"U","NORAD_CAT_ID":59530,"ELEMENT_SET_NO":999,"REV_AT_EPOCH":10613,"BSTAR":-6.132404e-5,"MEAN_MOTION_DOT":-1.949e-5,"MEAN_MOTION_DDOT":0},{"OBJECT_NAME":"GEOSCAN 1 (RS92S1)","OBJECT_ID":"2025-155E","EPOCH":"2026-03-09T22:44:05.846496","MEAN_MOTION":15.28410635,"ECCENTRICITY":0.00087099,"INCLINATION":97.4463,"RA_OF_ASC_NODE":37.403,"ARG_OF_PERICENTER":153.6429,"MEAN_ANOMALY":206.5255,"EPHEMERIS_TYPE":0,"CLASSIFICATION_TYPE":"U","NORAD_CAT_ID":64880,"ELEMENT_SET_NO":999,"REV_AT_EPOCH":6560,"BSTAR":0.00054367431,"MEAN_MOTION_DOT":0.00014993,"MEAN_MOTION_DDOT":0}]
